[{"OBJECT_NAME":"STARLINK-5148","OBJECT_ID":"2022-125Q","EPOCH":"2026-03-09T16:34:41.389248","MEAN_MOTION":15.08837461,"ECCENTRICITY":0.00013977,"INCLINATION":53.2168,"RA_OF_ASC_NODE":219.0316,"ARG_OF_PERICENTER":87.1186,"MEAN_ANOMALY":272.9966,"EPHEMERIS_TYPE":0,"CLASSIFICATION_TYPE":"U","NORAD_CAT_ID":53978,"ELEMENT_SET_NO":999,"REV_AT_EPOCH":18939,"BSTAR":-5.100158e-6,"MEAN_MOTION_DOT":-3.69e-6,"MEAN_MOTION_DDOT":0},{"OBJECT_NAME":"ELECTRON KICK STAGE R\/B","OBJECT_ID":"2024-114G","EPOCH":"2026-03-09T16:42:35.427168","MEAN_MOTION":15.12630878,"ECCENTRICITY":0.00674954,"INCLINATION":97.9507,"RA_OF_ASC_NODE":118.387,"ARG_OF_PERICENTER":79.3604,"MEAN_ANOMALY":281.5218,"EPHEMERIS_TYPE":0,"CLASSIFICATION_TYPE":"U","NORAD_CAT_ID":60085,"ELEMENT_SET_NO":999,"REV_AT_EPOCH":9434,"BSTAR":0.00053349816,"MEAN_MOTION_DOT":9.787e-5,"MEAN_MOTION_DDOT":0}]
